KUIPER-00428            
1 69593U 26140B   26193.23006415  .00012841  00000+0  36010-3 0  9995
2 69593  51.8805 277.8142 0008183  20.2283 339.9026 15.36909807  5082
KUIPER-00481            
1 69594U 26140C   26192.55493876  .00016414  00000+0  44157-3 0  9992
2 69594  51.8794 280.7878 0011355 264.2787  95.6906 15.37955078  4986
KUIPER-00490            
1 69595U 26140D   26192.23967140  .00020958  00000+0  56190-3 0  9996
2 69595  51.8769 282.4202 0006864 327.5188  32.5376 15.37919900  4936
KUIPER-00493            
1 69596U 26140E   26192.58445372  .00009281  00000+0  26585-3 0  9994
2 69596  51.8814 280.9850 0007728  25.8406 334.2965 15.36617305  4985
KUIPER-00496            
1 69597U 26140F   26193.25444420  .00007196  00000+0  22372-3 0  9996
2 69597  51.8787 277.9624 0009876  44.3097 315.8678 15.34379191  5082
KUIPER-00513            
1 69598U 26140G   26193.21151093  .00013897  00000+0  37407-3 0  9994
2 69598  51.8808 277.6961 0007590 327.9393  32.1132 15.38113368  5088
KUIPER-00516            
1 69599U 26140H   26193.21871873  .00009192  00000+0  25570-3 0  9991
2 69599  51.8789 277.7342 0007105 343.2640  16.8112 15.37550086  5087
KUIPER-00517            
1 69600U 26140J   26193.26255041  .00019676  00000+0  51316-3 0  9997
2 69600  51.8781 277.2806 0010493 280.9937  78.9870 15.38784514  5099
KUIPER-00520            
1 69601U 26140K   26193.21969330  .00007200  00000+0  20230-3 0  9997
2 69601  51.8824 277.7516 0006912 345.5327  14.5461 15.37602933  5087
KUIPER-00522            
1 69602U 26140L   26192.47956345  .00017490  00000+0  45974-3 0  9991
2 69602  51.8800 281.0380 0013384 249.8642 110.0905 15.38597501  4973
KUIPER-00528            
1 69603U 26140M   26192.50707241  .00013985  00000+0  38458-3 0  9999
2 69603  51.8778 281.2089 0005116 343.9191  16.1633 15.37455088  4971
KUIPER-00532            
1 69604U 26140N   26193.23160894  .00013029  00000+0  36907-3 0  9994
2 69604  51.8787 277.8180 0005829  22.0160 338.1076 15.36592066  5085
KUIPER-00533            
1 69605U 26140P   26192.55808564 -.00133268  00000+0 -35574-2 0  9990
2 69605  51.8797 280.8100 0007554 324.5636  35.4848 15.37994592  4981
KUIPER-00534            
1 69606U 26140Q   26192.47462228  .00011202  00000+0  29781-3 0  9990
2 69606  51.8818 281.0115 0013388 252.9579 106.9941 15.38662919  4970
KUIPER-00537            
1 69607U 26140R   26192.59971490  .00011929  00000+0  36403-3 0  9995
2 69607  51.8811 281.0851 0011006  42.8840 317.3002 15.34296234  4989
KUIPER-00538            
1 69608U 26140S   26193.21737683  .00015487  00000+0  42125-3 0  9991
2 69608  51.8807 277.7349 0007273 335.4639  24.6001 15.37695853  5089
KUIPER-00540            
1 69609U 26140T   26192.57758183  .00012977  00000+0  36378-3 0  9992
2 69609  51.8830 280.9443 0006626  10.8065 349.3063 15.36919037  4980
KUIPER-00541            
1 69610U 26140U   26191.90842681  .00013847  00000+0  36978-3 0  9990
2 69610  51.8827 283.9683 0008333 308.1236  51.8999 15.38356975  4887
KUIPER-00542            
1 69611U 26140V   26192.55655432  .00014210  00000+0  38071-3 0  9990
2 69611  51.8812 280.8032 0007911 300.8666  59.1543 15.38234454  4987
KUIPER-00543            
1 69612U 26140W   26193.23213661  .00016740  00000+0  46772-3 0  9998
2 69612  51.8770 277.8153 0007680  26.9647 333.1737 15.36795183  5080
KUIPER-00544            
1 69613U 26140X   26192.49579654  .00017604  00000+0  47072-3 0  9997
2 69613  51.8799 281.1405 0006516 305.8745  54.1636 15.38126834  4973
KUIPER-00546            
1 69614U 26140Y   26192.54029358  .00009228  00000+0  24596-3 0  9994
2 69614  51.8783 280.6956 0014260 250.2493 109.6957 15.38810193  4981
KUIPER-00547            
1 69615U 26140Z   26193.26915141  .00016984  00000+0  45776-3 0  9999
2 69615  51.8825 277.3363 0010891 279.7825  80.1932 15.37873754  5095
KUIPER-00549            
1 69616U 26140AA  26193.22346989  .00017753  00000+0  48713-3 0  9993
2 69616  51.8818 277.7694 0008512   6.6806 353.4293 15.37306081  5081
KUIPER-00550            
1 69617U 26140AB  26193.26240900 -.00007253  00000+0 -21492-3 0  9995
2 69617  51.8797 278.0158 0010019  69.2499 290.9558 15.32625297  5082
KUIPER-00551            
1 69618U 26140AC  26192.54709762  .00014799  00000+0  39373-3 0  9990
2 69618  51.8777 280.7418 0012517 254.9847 104.9755 15.38371575  4989
KUIPER-00554            
1 69619U 26140AD  26193.26741910  .00010028  00000+0  27433-3 0  9997
2 69619  51.8780 277.3159 0011176 281.0431  78.9299 15.37928097  5090
KUIPER-00555            
1 69620U 26140AE  26193.25002315  .00024874  00000+0  66427-3 0  9997
2 69620  51.8816 277.3766 0011301 267.0810  11.6376 15.37896352  4559
KUIPER-00556            
1 69621U 26140AF  26193.26423013  .00013913  00000+0  37195-3 0  9993
2 69621  51.8789 277.2984 0011631 253.6905 106.2804 15.38289150  5092
KUIPER-00557            
1 69622U 26140AG  26192.49247853  .00012516  00000+0  34424-3 0  9994
2 69622  51.8807 281.1278 0009913 288.6863  71.3047 15.37527254  4971
